ONEWEB-0300             
1 49089U 21075Q   24323.81830701 -.00000368  00000+0 -10596-2 0  9998
2 49089  87.8857 105.2379 0001912  93.3250 266.8097 13.12442381159739
ONEWEB-0301             
1 49090U 21075R   24323.87832190 -.00000311  00000+0 -89869-3 0  9998
2 49090  87.8860 105.2304 0001858  91.8874 268.2467 13.12441743159106
ONEWEB-0302             
1 49091U 21075S   24323.86534542  .00000176  00000+0  45428-3 0  9998
2 49091  87.8857 105.2319 0001125 101.8883 258.2372 13.12441999159082
ONEWEB-0304             
1 49092U 21075T   24323.87593128  .00000114  00000+0  26120-3 0  9995
2 49092  87.9070 120.4754 0001531 100.9535 259.1769 13.17652028157819
ONEWEB-0305             
1 49093U 21075U   24323.86917376  .00000106  00000+0  24049-3 0  9999
2 49093  87.9071 120.4599 0001612 112.0572 248.0731 13.17645896157847
ONEWEB-0308             
1 49094U 21075V   24323.85884654  .00000336  00000+0  89812-3 0  9995
2 49094  87.8857 105.2309 0001607  96.6733 263.4579 13.12444387159096
ONEWEB-0309             
1 49095U 21075W   24323.87255647  .00000072  00000+0  15328-3 0  9990
2 49095  87.9075 120.4686 0001036  88.2728 271.8523 13.17649184157811
ONEWEB-0310             
1 49096U 21075X   24323.87345203 -.00000055  00000+0 -18905-3 0  9996
2 49096  87.8865 105.2500 0001412  95.5010 264.6280 13.12439722159729
